[{"OBJECT_NAME":"OBJECT K","OBJECT_ID":"2024-092K","EPOCH":"2026-03-09T22:27:09.905184","MEAN_MOTION":15.32834875,"ECCENTRICITY":0.00087198,"INCLINATION":97.6413,"RA_OF_ASC_NODE":198.1023,"ARG_OF_PERICENTER":142.4952,"MEAN_ANOMALY":217.69,"EPHEMERIS_TYPE":0,"CLASSIFICATION_TYPE":"U","NORAD_CAT_ID":59809,"ELEMENT_SET_NO":999,"REV_AT_EPOCH":10001,"BSTAR":0.0007267688,"MEAN_MOTION_DOT":0.00023035,"MEAN_MOTION_DDOT":0},{"OBJECT_NAME":"COSMOS 249 DEB","OBJECT_ID":"1968-091AB","EPOCH":"2026-03-09T20:26:03.278112","MEAN_MOTION":13.65672942,"ECCENTRICITY":0.07422962,"INCLINATION":62.2701,"RA_OF_ASC_NODE":70.4053,"ARG_OF_PERICENTER":111.2229,"MEAN_ANOMALY":256.9701,"EPHEMERIS_TYPE":0,"CLASSIFICATION_TYPE":"U","NORAD_CAT_ID":3609,"ELEMENT_SET_NO":999,"REV_AT_EPOCH":69132,"BSTAR":0.00039134287,"MEAN_MOTION_DOT":2.2e-5,"MEAN_MOTION_DDOT":0}]
